YAOGAN-43 01D           
1 60461U 24148D   26068.43560480  .00010676  00000+0  37766-3 0  9999
2 60461  35.0010  61.7102 0002556 326.2473  33.8080 15.28369377 87008
STARLINK-35510          
1 66397U 25257T   26068.72847581  .00035149  00000+0  11929-2 0  9991
2 66397  53.1604 216.5401 0000704  70.6158 289.4918 15.30208609 19745
